LEMUR-2-HUBBLE-4        
1 64565U 25135AP  26204.78284600  .00001360  00000+0  13394-3 0  9993
2 64565  97.7723 318.2683 0003303 142.4259 217.7192 14.93702488 59335
LEMUR-2-SEJONG-2        
1 64586U 25135BL  26204.80439566  .00006051  00000+0  53103-3 0  9996
2 64586  97.7714 319.5855 0004488 180.2423 179.8797 14.96972730 59422
LEMUR-2-HUBBLE-5        
1 64840U 25135BT  26204.78865575  .00001567  00000+0  15148-3 0  9993
2 64840  97.7743 318.9523 0005018 201.3697 158.7314 14.94230571 59373
LEMUR-2-KARENDARRELL    
1 64841U 25135BU  26204.26527003  .00007565  00000+0  60260-3 0  9997
2 64841  97.7721 320.4320 0013037  80.3476 279.9220 15.00584303 59424
LEMUR-2-LUCILLE-ROSE    
1 65403U 25135BV  26204.77228292  .00007034  00000+0  56043-3 0  9991
2 65403  97.7686 320.9716 0015659 163.5108 196.6628 15.00573199 54121
LEMUR-2-AFFIE-WAUWIE    
1 66295U 25248C   26204.21280272  .00020771  00000+0  74289-3 0  9996
2 66295  45.3913 279.5994 0009333 293.1633  66.8272 15.28503726 40100
OTTER SDM               
1 66678U 25276N   26204.85243056  .00006263  00000+0  29271-3 0  9992
2 66678  97.4196 277.7261 0004914 215.3658 144.7252 15.20134767 35987
LEMUR-2-STAS-GORBUK     
1 66686U 25276W   26204.15187419  .00005495  00000+0  26035-3 0  9995
2 66686  97.4227 277.0873 0004250 212.6305 147.4668 15.19715909 35875
LEMUR-2-TEODOR          
1 66768U 25276DG  26204.62226507  .00005768  00000+0  26013-3 0  9999
2 66768  97.4135 277.8327 0002058  82.4426 277.7043 15.21404015 35989
LEMUR-2-LAILA           
1 66776U 25276DQ  26204.85385637  .00005748  00000+0  25750-3 0  9998
2 66776  97.4158 278.2050 0002749  81.5647 278.5901 15.21634804 36022
LEMUR-2-CELIJO-SB-PK    
1 66781U 25276DW  26204.45499986  .00006129  00000+0  49253-3 0  9991
2 66781  97.5182 274.0339 0006513  44.3861 315.7884 15.00352890 28066
LEMUR-2-FINNIAN         
1 66782U 25276DX  26204.62346807  .00005601  00000+0  44670-3 0  9996
2 66782  97.5352 274.4854 0006873 326.1905  33.8880 15.00686558 25467
LEMUR-2-STARLIGHT       
1 66783U 25276DY  26204.47767067  .00006375  00000+0  52363-3 0  9992
2 66783  97.5245 273.8780 0014425  21.9305 338.2533 14.99432550 35631
LEMUR-2-TARTIFLETTE     
1 66784U 25276DZ  26204.14249792  .00006309  00000+0  51868-3 0  9993
2 66784  97.5241 273.5617 0013729  32.0065 328.1990 14.99409339 35584
LEMUR-2-VUKASIN         
1 66785U 25276EA  26204.63997102  .00005600  00000+0  44770-3 0  9990
2 66785  97.5196 274.4134 0001745  20.5196 339.6098 15.00606940 35610
LEMUR-2-HOTSPUR-TOM     
1 66786U 25276EB  26204.13744019  .00006439  00000+0  53079-3 0  9996
2 66786  97.5217 273.5281 0013455  23.8988 336.2857 14.99305596 35519
